[{"OBJECT_NAME":"NANOSATC-BR1","OBJECT_ID":"2014-033Q","EPOCH":"2026-03-09T23:35:03.168384","MEAN_MOTION":15.28136801,"ECCENTRICITY":0.00046435,"INCLINATION":98.0845,"RA_OF_ASC_NODE":92.7804,"ARG_OF_PERICENTER":147.6715,"MEAN_ANOMALY":212.4808,"EPHEMERIS_TYPE":0,"CLASSIFICATION_TYPE":"U","NORAD_CAT_ID":40024,"ELEMENT_SET_NO":999,"REV_AT_EPOCH":63881,"BSTAR":0.00074295057,"MEAN_MOTION_DOT":0.00020336,"MEAN_MOTION_DDOT":0},{"OBJECT_NAME":"STARLINK-32094","OBJECT_ID":"2024-086Q","EPOCH":"2026-03-09T09:29:56.367456","MEAN_MOTION":15.27575061,"ECCENTRICITY":8.278e-5,"INCLINATION":43.0013,"RA_OF_ASC_NODE":61.8558,"ARG_OF_PERICENTER":278.2145,"MEAN_ANOMALY":81.8613,"EPHEMERIS_TYPE":0,"CLASSIFICATION_TYPE":"U","NORAD_CAT_ID":59696,"ELEMENT_SET_NO":999,"REV_AT_EPOCH":10406,"BSTAR":-3.5418961e-5,"MEAN_MOTION_DOT":-1.236e-5,"MEAN_MOTION_DDOT":0}]
